[{"OBJECT_NAME":"ARVAKER-3","OBJECT_ID":"2025-135AQ","EPOCH":"2026-03-09T22:14:44.749248","MEAN_MOTION":14.93138697,"ECCENTRICITY":4.474e-5,"INCLINATION":97.7597,"RA_OF_ASC_NODE":184.2656,"ARG_OF_PERICENTER":240.4177,"MEAN_ANOMALY":119.6998,"EPHEMERIS_TYPE":0,"CLASSIFICATION_TYPE":"U","NORAD_CAT_ID":64566,"ELEMENT_SET_NO":999,"REV_AT_EPOCH":3906,"BSTAR":0.00046258382,"MEAN_MOTION_DOT":4.77e-5,"MEAN_MOTION_DDOT":0},{"OBJECT_NAME":"OBJECT G","OBJECT_ID":"2023-195G","EPOCH":"2026-03-09T16:32:08.196864","MEAN_MOTION":14.91549361,"ECCENTRICITY":0.0003394,"INCLINATION":49.9938,"RA_OF_ASC_NODE":22.7346,"ARG_OF_PERICENTER":31.0627,"MEAN_ANOMALY":329.0515,"EPHEMERIS_TYPE":0,"CLASSIFICATION_TYPE":"U","NORAD_CAT_ID":59884,"ELEMENT_SET_NO":999,"REV_AT_EPOCH":9745,"BSTAR":0.00022981,"MEAN_MOTION_DOT":2.087e-5,"MEAN_MOTION_DDOT":0}]
